{
  "norad_id": 68805,
  "name": "STARLINK-36832",
  "history": [
    {
      "epoch": "2026-04-27T12:57:31.597920Z",
      "apogee_km": 269.32503421333695,
      "perigee_km": 268.1389669088776,
      "latitude_deg": 2.6192217385632403e-05,
      "longitude_deg": -87.22286145684093,
      "height_km": 271.9365159271521,
      "semi_major_axis_km": 6646.869000561107,
      "eccentricity": 8.922e-05,
      "inclination_deg": 97.2858,
      "raan_deg": 322.6871,
      "arg_perigee_deg": 90.1606,
      "mean_anomaly_deg": 269.9776,
      "mean_motion_rev_day": 16.02053749
    },
    {
      "epoch": "2026-04-29T20:00:01.999008Z",
      "apogee_km": 297.5722844598922,
      "perigee_km": 295.44974639098746,
      "latitude_deg": -35.44565204242363,
      "longitude_deg": -17.818294172028907,
      "height_km": 310.607649384064,
      "semi_major_axis_km": 6674.64801542544,
      "eccentricity": 0.000159,
      "inclination_deg": 97.2851,
      "raan_deg": 325.1706,
      "arg_perigee_deg": 95.6133,
      "mean_anomaly_deg": 119.8641,
      "mean_motion_rev_day": 15.92062854
    },
    {
      "epoch": "2026-04-30T14:00:01.999872Z",
      "apogee_km": 306.8058699425728,
      "perigee_km": 304.4676185358885,
      "latitude_deg": -6.837523451734954,
      "longitude_deg": 76.56682753445483,
      "height_km": 310.29333901210595,
      "semi_major_axis_km": 6683.77374423923,
      "eccentricity": 0.00017492,
      "inclination_deg": 97.2849,
      "raan_deg": 325.9765,
      "arg_perigee_deg": 80.3123,
      "mean_anomaly_deg": 106.3904,
      "mean_motion_rev_day": 15.88803369
    },
    {
      "epoch": "2026-05-02T10:00:03.000096Z",
      "apogee_km": 329.31166664534794,
      "perigee_km": 327.2125637222962,
      "latitude_deg": -18.772956040925187,
      "longitude_deg": 135.103122509996,
      "height_km": 336.10058656354533,
      "semi_major_axis_km": 6706.399115183822,
      "eccentricity": 0.0001565,
      "inclination_deg": 97.2846,
      "raan_deg": 327.9269,
      "arg_perigee_deg": 85.9922,
      "mean_anomaly_deg": 112.6866,
      "mean_motion_rev_day": 15.80769938
    },
    {
      "epoch": "2026-05-03T20:00:01.999008Z",
      "apogee_km": 335.51336206280394,
      "perigee_km": 333.2109748480234,
      "latitude_deg": -26.80120437921042,
      "longitude_deg": 171.36473776043002,
      "height_km": 345.3027152223399,
      "semi_major_axis_km": 6712.499168455413,
      "eccentricity": 0.0001715,
      "inclination_deg": 97.2837,
      "raan_deg": 329.4233,
      "arg_perigee_deg": 103.8583,
      "mean_anomaly_deg": 229.3861,
      "mean_motion_rev_day": 15.78615616
    },
    {
      "epoch": "2026-05-04T20:00:01.999008Z",
      "apogee_km": 345.0798413790435,
      "perigee_km": 343.02957290836457,
      "latitude_deg": -64.31910289452497,
      "longitude_deg": -27.57838058110866,
      "height_km": 369.60492475781524,
      "semi_major_axis_km": 6722.191707143704,
      "eccentricity": 0.0001525,
      "inclination_deg": 97.2846,
      "raan_deg": 330.4752,
      "arg_perigee_deg": 86.9318,
      "mean_anomaly_deg": 158.1623,
      "mean_motion_rev_day": 15.75202605
    },
    {
      "epoch": "2026-05-05T20:00:03.000384Z",
      "apogee_km": 344.88170054009515,
      "perigee_km": 343.59100485637646,
      "latitude_deg": 27.794245442320957,
      "longitude_deg": -8.349010670076634,
      "height_km": 347.4291340604988,
      "semi_major_axis_km": 6722.373352698235,
      "eccentricity": 9.6e-05,
      "inclination_deg": 97.2853,
      "raan_deg": 331.524,
      "arg_perigee_deg": 102.6867,
      "mean_anomaly_deg": 49.31,
      "mean_motion_rev_day": 15.7513876
    },
    {
      "epoch": "2026-05-06T20:00:01.999008Z",
      "apogee_km": 344.8847305731151,
      "perigee_km": 343.26064471258087,
      "latitude_deg": 58.08580053959504,
      "longitude_deg": 156.0996246074605,
      "height_km": 353.21890197756665,
      "semi_major_axis_km": 6722.209687642848,
      "eccentricity": 0.0001208,
      "inclination_deg": 97.285,
      "raan_deg": 332.5738,
      "arg_perigee_deg": 88.0753,
      "mean_anomaly_deg": 330.666,
      "mean_motion_rev_day": 15.75196285
    },
    {
      "epoch": "2026-05-07T20:00:01.999008Z",
      "apogee_km": 345.0494415118419,
      "perigee_km": 343.06908249305525,
      "latitude_deg": -34.3964051411674,
      "longitude_deg": 172.93326312423866,
      "height_km": 357.80524039113726,
      "semi_major_axis_km": 6722.196262002448,
      "eccentricity": 0.0001473,
      "inclination_deg": 97.2848,
      "raan_deg": 333.623,
      "arg_perigee_deg": 94.0047,
      "mean_anomaly_deg": 231.5742,
      "mean_motion_rev_day": 15.75201004
    },
    {
      "epoch": "2026-05-08T19:01:00.443136Z",
      "apogee_km": 344.945263001905,
      "perigee_km": 343.0630634761974,
      "latitude_deg": -3.3223303953463625e-06,
      "longitude_deg": -177.24225722503246,
      "height_km": 346.8686056935061,
      "semi_major_axis_km": 6722.141163239051,
      "eccentricity": 0.00014,
      "inclination_deg": 97.2852,
      "raan_deg": 334.6288,
      "arg_perigee_deg": 71.3001,
      "mean_anomaly_deg": 288.8416,
      "mean_motion_rev_day": 15.75220371
    }
  ]
}